$$SOE
2461302.500000000, A.D. 2026-Sep-19 00:00:00.0000, -3.369578611052948E+08, 5.452363361678553E+07, 7.254902099110797E+07,
2461309.500000000, A.D. 2026-Sep-26 00:00:00.0000, -3.369233872004240E+08, 4.260963516555136E+07, 7.248377036969551E+07,
2461316.500000000, A.D. 2026-Oct-03 00:00:00.0000, -3.364983658437347E+08, 3.064635070274048E+07, 7.233448303152744E+07,
2461323.500000000, A.D. 2026-Oct-10 00:00:00.0000, -3.356774745813108E+08, 1.864711315231556E+07, 7.210008272580983E+07,
2461330.500000000, A.D. 2026-Oct-17 00:00:00.0000, -3.344557684215508E+08, 6.625705748314094E+06, 7.177957641666070E+07,
2461337.500000000, A.D. 2026-Oct-24 00:00:00.0000, -3.328287124069605E+08, -5.403640968193457E+06, 7.137206124017650E+07,
2461344.500000000, A.D. 2026-Oct-31 00:00:00.0000, -3.307922153594806E+08, -1.742625450477499E+07, 7.087673169951078E+07,
2461351.500000000, A.D. 2026-Nov-07 00:00:00.0000, -3.283426643609056E+08, -2.942702826393995E+07, 7.029288705068447E+07,
2461358.500000000, A.D. 2026-Nov-14 00:00:00.0000, -3.254769596422844E+08, -4.139043120806122E+07, 6.961993890538536E+07,
2461365.500000000, A.D. 2026-Nov-21 00:00:00.0000, -3.221925515411896E+08, -5.330051887832879E+07, 6.885741923875998E+07,
2461372.500000000, A.D. 2026-Nov-28 00:00:00.0000, -3.184874803463269E+08, -6.514094899267277E+07, 6.800498860878858E+07,
2461379.500000000, A.D. 2026-Dec-05 00:00:00.0000, -3.143604152040538E+08, -7.689500248803066E+07, 6.706244415740357E+07,
2461386.500000000, A.D. 2026-Dec-12 00:00:00.0000, -3.098106916782756E+08, -8.854560709112623E+07, 6.602972757986970E+07,
2461393.500000000, A.D. 2026-Dec-19 00:00:00.0000, -3.048383495681170E+08, -1.000753635948958E+08, 6.490693317395373E+07,
2461400.500000000, A.D. 2026-Dec-26 00:00:00.0000, -2.994441708128483E+08, -1.114665758786736E+08, 6.369431584266572E+07,
2461407.500000000, A.D. 2027-Jan-02 00:00:00.0000, -2.936297168674875E+08, -1.227012850086819E+08, 6.239229893638647E+07,
2461414.500000000, A.D. 2027-Jan-09 00:00:00.0000, -2.873973650587791E+08, -1.337613075117672E+08, 6.100148184529509E+07,
2461421.500000000, A.D. 2027-Jan-16 00:00:00.0000, -2.807503434801136E+08, -1.446282778908120E+08, 5.952264725235915E+07,
2461428.500000000, A.D. 2027-Jan-23 00:00:00.0000, -2.736927639449675E+08, -1.552836954581377E+08, 5.795676794622284E+07,
2461435.500000000, A.D. 2027-Jan-30 00:00:00.0000, -2.662296523533660E+08, -1.657089755240010E+08, 5.630501307494470E+07,
2461442.500000000, A.D. 2027-Feb-06 00:00:00.0000, -2.583669755701346E+08, -1.758855045341718E+08, 5.456875372750764E+07,
2461449.500000000, A.D. 2027-Feb-13 00:00:00.0000, -2.501116647833709E+08, -1.857946978073099E+08, 5.274956787907688E+07,
2461456.500000000, A.D. 2027-Feb-20 00:00:00.0000, -2.414716372023869E+08, -1.954180604649528E+08, 5.084924474219643E+07,
2461463.500000000, A.D. 2027-Feb-27 00:00:00.0000, -2.324558141894943E+08, -2.047372545028707E+08, 4.886978802188671E+07,
2461470.500000000, A.D. 2027-Mar-06 00:00:00.0000, -2.230741323051626E+08, -2.137341697513651E+08, 4.681341784708563E+07,
2461477.500000000, A.D. 2027-Mar-13 00:00:00.0000, -2.133375483856736E+08, -2.223909962784727E+08, 4.468257159256675E+07,
2461484.500000000, A.D. 2027-Mar-20 00:00:00.0000, -2.032580393390011E+08, -2.306902986036240E+08, 4.247990353671776E+07,
2461491.500000000, A.D. 2027-Mar-27 00:00:00.0000, -1.928485960609276E+08, -2.386150917295482E+08, 4.020828321178404E+07,
2461498.500000000, A.D. 2027-Apr-03 00:00:00.0000, -1.821232109270090E+08, -2.461489184277965E+08, 3.787079235466433E+07,
2461505.500000000, A.D. 2027-Apr-10 00:00:00.0000, -1.710968585210811E+08, -2.532759270773024E+08, 3.547072039814989E+07,
2461512.500000000, A.D. 2027-Apr-17 00:00:00.0000, -1.597854693725939E+08, -2.599809493355617E+08, 3.301155845835325E+07,
2461519.500000000, A.D. 2027-Apr-24 00:00:00.0000, -1.482058965001521E+08, -2.662495769246354E+08, 3.049699178271817E+07,
2461526.500000000, A.D. 2027-May-01 00:00:00.0000, -1.363758744313875E+08, -2.720682366926610E+08, 2.793089063055670E+07,
2461533.500000000, A.D. 2027-May-08 00:00:00.0000, -1.243139704638198E+08, -2.774242623725961E+08, 2.531729963840020E+07,
2461540.500000000, A.D. 2027-May-15 00:00:00.0000, -1.120395298429789E+08, -2.823059612492651E+08, 2.266042592733388E+07,
2461547.500000000, A.D. 2027-May-22 00:00:00.0000, -9.957261670967053E+07, -2.867026775011569E+08, 1.996462594852094E+07,
2461554.500000000, A.D. 2027-May-29 00:00:00.0000, -8.693394785878693E+07, -2.906048528908556E+08, 1.723439072680214E+07,
2461561.500000000, A.D. 2027-Jun-05 00:00:00.0000, -7.414481893183254E+07, -2.940040809227948E+08, 1.447432978737220E+07,
2461568.500000000, A.D. 2027-Jun-12 00:00:00.0000, -6.122702565597544E+07, -2.968931533432747E+08, 1.168915411593989E+07,
2461575.500000000, A.D. 2027-Jun-19 00:00:00.0000, -4.820278115255100E+07, -2.992660992994666E+08, 8.883658257199973E+06,
2461582.500000000, A.D. 2027-Jun-26 00:00:00.0000, -3.509462980335708E+07, -3.011182168943779E+08, 6.062701673979312E+06,
2461589.500000000, A.D. 2027-Jul-03 00:00:00.0000, -2.192535837388988E+07, -3.024460967149608E+08, 3.231189540236071E+06,
2461596.500000000, A.D. 2027-Jul-10 00:00:00.0000, -8.717905238570206E+06, -3.032476370332315E+08, 3.940531607961953E+05,
2461603.500000000, A.D. 2027-Jul-17 00:00:00.0000, 4.504731408272938E+06, -3.035220505572141E+08, -2.443769786975741E+06,
2461610.500000000, A.D. 2027-Jul-24 00:00:00.0000, 1.771958557057924E+07, -3.032698627582358E+08, -5.277355006294176E+06,
2461617.500000000, A.D. 2027-Jul-31 00:00:00.0000, 3.090381516942839E+07, -3.024929016232613E+08, -8.101811147890210E+06,
2461624.500000000, A.D. 2027-Aug-07 00:00:00.0000, 4.403479234598536E+07, -3.011942778826931E+08, -1.091229888524210E+07,
2461631.500000000, A.D. 2027-Aug-14 00:00:00.0000, 5.709018917395891E+07, -2.993783562820412E+08, -1.370404912403679E+07,
2461638.500000000, A.D. 2027-Aug-21 00:00:00.0000, 7.004805858626515E+07, -2.970507216831532E+08, -1.647238050607987E+07,
2461645.500000000, A.D. 2027-Aug-28 00:00:00.0000, 8.288691320709822E+07, -2.942181393155979E+08, -1.921271626779155E+07,
2461652.500000000, A.D. 2027-Sep-04 00:00:00.0000, 9.558580025044382E+07, -2.908885072882564E+08, -2.192060000216378E+07,
2461659.500000000, A.D. 2027-Sep-11 00:00:00.0000, 1.081243705231856E+08, -2.870708027031190E+08, -2.459171013209867E+07,
2461666.500000000, A.D. 2027-Sep-18 00:00:00.0000, 1.204829411988349E+08, -2.827750227545848E+08, -2.722187306393526E+07,
2461673.500000000, A.D. 2027-Sep-25 00:00:00.0000, 1.326425522266733E+08, -2.780121216622742E+08, -2.980707497433744E+07,
2461680.500000000, A.D. 2027-Oct-02 00:00:00.0000, 1.445850161905428E+08, -2.727939442003876E+08, -3.234347218347166E+07,
2461687.500000000, A.D. 2027-Oct-09 00:00:00.0000, 1.562929614810523E+08, -2.671331566209986E+08, -3.482740008710110E+07,
2461694.500000000, A.D. 2027-Oct-16 00:00:00.0000, 1.677498687873540E+08, -2.610431758068595E+08, -3.725538064917895E+07,
2461701.500000000, A.D. 2027-Oct-23 00:00:00.0000, 1.789401012090812E+08, -2.545380974198424E+08, -3.962412849093878E+07,
2461708.500000000, A.D. 2027-Oct-30 00:00:00.0000, 1.898489284900153E+08, -2.476326231654446E+08, -4.193055559169373E+07,
2461715.500000000, A.D. 2027-Nov-06 00:00:00.0000, 2.004625444103913E+08, -2.403419867312670E+08, -4.417177444977584E+07,
2461722.500000000, A.D. 2027-Nov-13 00:00:00.0000, 2.107680756166956E+08, -2.326818811036848E+08, -4.634509975229390E+07,
2461729.500000000, A.D. 2027-Nov-20 00:00:00.0000, 2.207535851115952E+08, -2.246683900135387E+08, -4.844804907098018E+07,
2461736.500000000, A.D. 2027-Nov-27 00:00:00.0000, 2.304080723889505E+08, -2.163179210503414E+08, -5.047834257204938E+07,
2461743.500000000, A.D. 2027-Dec-04 00:00:00.0000, 2.397214685892400E+08, -2.076471399691487E+08, -5.243390156745361E+07,
2461750.500000000, A.D. 2027-Dec-11 00:00:00.0000, 2.486846265463938E+08, -1.986729075182375E+08, -5.431284602623151E+07,
2461757.500000000, A.D. 2027-Dec-18 00:00:00.0000, 2.572893064442086E+08, -1.894122194188023E+08, -5.611349119212108E+07,
2461764.500000000, A.D. 2027-Dec-25 00:00:00.0000, 2.655281576952838E+08, -1.798821497295955E+08, -5.783434341918474E+07,
2461771.500000000, A.D. 2028-Jan-01 00:00:00.0000, 2.733946975496475E+08, -1.700997977615482E+08, -5.947409532925403E+07,
$$EOE